SCD 1                   
1 22490U 93009B   25144.20085244  .00000451  00000+0  73029-4 0  9993
2 22490  24.9694  88.8185 0041965 342.1265 151.5034 14.45849550704756
TECHSAT 1B (GO-32)      
1 25397U 98043D   25144.53465950  .00000062  00000+0  46907-4 0  9990
2 25397  98.9696 123.3199 0000324 211.1438 148.9721 14.24311000396222
SCD 2                   
1 25504U 98060A   25144.58475296  .00000375  00000+0  54273-4 0  9990
2 25504  24.9963 308.2260 0016764 337.9982  84.8992 14.45291243404044
DLR-TUBSAT              
1 25757U 99029B   25144.52432024  .00000095  00000+0  35299-4 0  9998
2 25757  98.6346 123.0460 0015477  92.1144 268.1823 14.52266139376932
TERRA                   
1 25994U 99068A   25144.81827885  .00000390  00000+0  89283-4 0  9999
2 25994  97.9991 203.5737 0002916  44.1903  80.7943 14.60686766353025
MAROC-TUBSAT            
1 27004U 01056D   25144.47942071 -.00000020  00000+0  30338-4 0  9998
2 27004  99.7762 309.5504 0020512  59.9973   9.8958 13.70241839172954
AQUA                    
1 27424U 02022A   25144.85027609  .00000814  00000+0  17479-3 0  9991
2 27424  98.3768 102.9100 0002070  91.0069 290.7825 14.61260139226588
IRS-P6 (RESOURCESAT-1)  
1 28051U 03046A   25144.86741347  .00000194  00000+0  79065-4 0  9999
2 28051  98.2420 194.2794 0065522  67.3046  37.0839 14.35972543124825
SHIYAN-1 (SY-1)         
1 28220U 04012A   25144.69934210  .00007319  00000+0  31600-3 0  9993
2 28220  97.9182 194.9416 0005647 304.6509  55.4194 15.22825541151959
AURA                    
1 28376U 04026A   25144.83905269  .00000783  00000+0  17146-3 0  9995
2 28376  98.2936  94.5829 0001767  83.1144 277.0257 14.60401109109550
IRS-P5 (CARTOSAT-1)     
1 28649U 05017A   25144.80483997  .00001254  00000+0  13680-3 0  9998
2 28649  97.5680 179.9869 0000594  93.1591 266.9695 14.89605269 86042
SINAH 1                 
1 28893U 05043D   25144.62330027  .00000341  00000+0  74739-4 0  9992
2 28893  98.2350 273.0152 0015601  56.8965 303.3732 14.63703849 43677
EROS B                  
1 29079U 06014A   25144.79986171  .00029226  00000+0  77018-3 0  9998
2 29079  97.3442 257.9020 0006263 123.6087 236.5756 15.38453356 59569
RESURS-DK 1             
1 29228U 06021A   25144.57865006  .00001956  00000+0  12356-3 0  9995
2 29228  69.9338 263.6821 0006401 227.3561 132.7065 15.10885733 43831
