[
  {
    "OBJECT_NAME": "SCD 1",
    "OBJECT_ID": "1993-009B",
    "EPOCH": "2025-05-24T04:49:13.650816",
    "MEAN_MOTION": 14.4584955,
    "ECCENTRICITY": 0.0041965,
    "INCLINATION": 24.9694,
    "RA_OF_ASC_NODE": 88.8185,
    "ARG_OF_PERICENTER": 342.1265,
    "MEAN_ANOMALY": 151.5034,
    "EPHEMERIS_TYPE": 0,
    "CLASSIFICATION_TYPE": "U",
    "NORAD_CAT_ID": 22490,
    "ELEMENT_SET_NO": 999,
    "REV_AT_EPOCH": 70475,
    "BSTAR": 7.3029e-05,
    "MEAN_MOTION_DOT": 4.51e-06,
    "MEAN_MOTION_DDOT": 0
  },
  {
    "OBJECT_NAME": "TECHSAT 1B (GO-32)",
    "OBJECT_ID": "1998-043D",
    "EPOCH": "2025-05-24T12:49:54.580800",
    "MEAN_MOTION": 14.24311,
    "ECCENTRICITY": 3.24e-05,
    "INCLINATION": 98.9696,
    "RA_OF_ASC_NODE": 123.3199,
    "ARG_OF_PERICENTER": 211.1438,
    "MEAN_ANOMALY": 148.9721,
    "EPHEMERIS_TYPE": 0,
    "CLASSIFICATION_TYPE": "U",
    "NORAD_CAT_ID": 25397,
    "ELEMENT_SET_NO": 999,
    "REV_AT_EPOCH": 39622,
    "BSTAR": 4.6907e-05,
    "MEAN_MOTION_DOT": 6.2e-07,
    "MEAN_MOTION_DDOT": 0
  },
  {
    "OBJECT_NAME": "SCD 2",
    "OBJECT_ID": "1998-060A",
    "EPOCH": "2025-05-24T14:02:02.655744",
    "MEAN_MOTION": 14.45291243,
    "ECCENTRICITY": 0.0016764,
    "INCLINATION": 24.9963,
    "RA_OF_ASC_NODE": 308.226,
    "ARG_OF_PERICENTER": 337.9982,
    "MEAN_ANOMALY": 84.8992,
    "EPHEMERIS_TYPE": 0,
    "CLASSIFICATION_TYPE": "U",
    "NORAD_CAT_ID": 25504,
    "ELEMENT_SET_NO": 999,
    "REV_AT_EPOCH": 40404,
    "BSTAR": 5.4273e-05,
    "MEAN_MOTION_DOT": 3.75e-06,
    "MEAN_MOTION_DDOT": 0
  },
  {
    "OBJECT_NAME": "DLR-TUBSAT",
    "OBJECT_ID": "1999-029B",
    "EPOCH": "2025-05-24T12:35:01.268736",
    "MEAN_MOTION": 14.52266139,
    "ECCENTRICITY": 0.0015477,
    "INCLINATION": 98.6346,
    "RA_OF_ASC_NODE": 123.046,
    "ARG_OF_PERICENTER": 92.1144,
    "MEAN_ANOMALY": 268.1823,
    "EPHEMERIS_TYPE": 0,
    "CLASSIFICATION_TYPE": "U",
    "NORAD_CAT_ID": 25757,
    "ELEMENT_SET_NO": 999,
    "REV_AT_EPOCH": 37693,
    "BSTAR": 3.5299e-05,
    "MEAN_MOTION_DOT": 9.5e-07,
    "MEAN_MOTION_DDOT": 0
  },
  {
    "OBJECT_NAME": "TERRA",
    "OBJECT_ID": "1999-068A",
    "EPOCH": "2025-05-24T19:38:19.292640",
    "MEAN_MOTION": 14.60686766,
    "ECCENTRICITY": 0.0002916,
    "INCLINATION": 97.9991,
    "RA_OF_ASC_NODE": 203.5737,
    "ARG_OF_PERICENTER": 44.1903,
    "MEAN_ANOMALY": 80.7943,
    "EPHEMERIS_TYPE": 0,
    "CLASSIFICATION_TYPE": "U",
    "NORAD_CAT_ID": 25994,
    "ELEMENT_SET_NO": 999,
    "REV_AT_EPOCH": 35302,
    "BSTAR": 8.9283e-05,
    "MEAN_MOTION_DOT": 3.9e-06,
    "MEAN_MOTION_DDOT": 0
  },
  {
    "OBJECT_NAME": "MAROC-TUBSAT",
    "OBJECT_ID": "2001-056D",
    "EPOCH": "2025-05-24T11:30:21.949344",
    "MEAN_MOTION": 13.70241839,
    "ECCENTRICITY": 0.0020512,
    "INCLINATION": 99.7762,
    "RA_OF_ASC_NODE": 309.5504,
    "ARG_OF_PERICENTER": 59.9973,
    "MEAN_ANOMALY": 9.8958,
    "EPHEMERIS_TYPE": 0,
    "CLASSIFICATION_TYPE": "U",
    "NORAD_CAT_ID": 27004,
    "ELEMENT_SET_NO": 999,
    "REV_AT_EPOCH": 17295,
    "BSTAR": 3.0338e-05,
    "MEAN_MOTION_DOT": -2e-07,
    "MEAN_MOTION_DDOT": 0
  },
  {
    "OBJECT_NAME": "AQUA",
    "OBJECT_ID": "2002-022A",
    "EPOCH": "2025-05-24T20:24:23.854176",
    "MEAN_MOTION": 14.61260139,
    "ECCENTRICITY": 0.000207,
    "INCLINATION": 98.3768,
    "RA_OF_ASC_NODE": 102.91,
    "ARG_OF_PERICENTER": 91.0069,
    "MEAN_ANOMALY": 290.7825,
    "EPHEMERIS_TYPE": 0,
    "CLASSIFICATION_TYPE": "U",
    "NORAD_CAT_ID": 27424,
    "ELEMENT_SET_NO": 999,
    "REV_AT_EPOCH": 22658,
    "BSTAR": 0.00017479,
    "MEAN_MOTION_DOT": 8.14e-06,
    "MEAN_MOTION_DDOT": 0
  },
  {
    "OBJECT_NAME": "IRS-P6 (RESOURCESAT-1)",
    "OBJECT_ID": "2003-046A",
    "EPOCH": "2025-05-24T20:49:04.523808",
    "MEAN_MOTION": 14.35972543,
    "ECCENTRICITY": 0.0065522,
    "INCLINATION": 98.242,
    "RA_OF_ASC_NODE": 194.2794,
    "ARG_OF_PERICENTER": 67.3046,
    "MEAN_ANOMALY": 37.0839,
    "EPHEMERIS_TYPE": 0,
    "CLASSIFICATION_TYPE": "U",
    "NORAD_CAT_ID": 28051,
    "ELEMENT_SET_NO": 999,
    "REV_AT_EPOCH": 12482,
    "BSTAR": 7.9065e-05,
    "MEAN_MOTION_DOT": 1.94e-06,
    "MEAN_MOTION_DDOT": 0
  },
  {
    "OBJECT_NAME": "SHIYAN-1 (SY-1)",
    "OBJECT_ID": "2004-012A",
    "EPOCH": "2025-05-24T16:47:03.157440",
    "MEAN_MOTION": 15.22825541,
    "ECCENTRICITY": 0.0005647,
    "INCLINATION": 97.9182,
    "RA_OF_ASC_NODE": 194.9416,
    "ARG_OF_PERICENTER": 304.6509,
    "MEAN_ANOMALY": 55.4194,
    "EPHEMERIS_TYPE": 0,
    "CLASSIFICATION_TYPE": "U",
    "NORAD_CAT_ID": 28220,
    "ELEMENT_SET_NO": 999,
    "REV_AT_EPOCH": 15195,
    "BSTAR": 0.000316,
    "MEAN_MOTION_DOT": 7.319e-05,
    "MEAN_MOTION_DDOT": 0
  },
  {
    "OBJECT_NAME": "AURA",
    "OBJECT_ID": "2004-026A",
    "EPOCH": "2025-05-24T20:08:14.152416",
    "MEAN_MOTION": 14.60401109,
    "ECCENTRICITY": 0.0001767,
    "INCLINATION": 98.2936,
    "RA_OF_ASC_NODE": 94.5829,
    "ARG_OF_PERICENTER": 83.1144,
    "MEAN_ANOMALY": 277.0257,
    "EPHEMERIS_TYPE": 0,
    "CLASSIFICATION_TYPE": "U",
    "NORAD_CAT_ID": 28376,
    "ELEMENT_SET_NO": 999,
    "REV_AT_EPOCH": 10955,
    "BSTAR": 0.00017146,
    "MEAN_MOTION_DOT": 7.83e-06,
    "MEAN_MOTION_DDOT": 0
  },
  {
    "OBJECT_NAME": "IRS-P5 (CARTOSAT-1)",
    "OBJECT_ID": "2005-017A",
    "EPOCH": "2025-05-24T19:18:58.173408",
    "MEAN_MOTION": 14.89605269,
    "ECCENTRICITY": 5.94e-05,
    "INCLINATION": 97.568,
    "RA_OF_ASC_NODE": 179.9869,
    "ARG_OF_PERICENTER": 93.1591,
    "MEAN_ANOMALY": 266.9695,
    "EPHEMERIS_TYPE": 0,
    "CLASSIFICATION_TYPE": "U",
    "NORAD_CAT_ID": 28649,
    "ELEMENT_SET_NO": 999,
    "REV_AT_EPOCH": 8604,
    "BSTAR": 0.0001368,
    "MEAN_MOTION_DOT": 1.254e-05,
    "MEAN_MOTION_DDOT": 0
  },
  {
    "OBJECT_NAME": "SINAH 1",
    "OBJECT_ID": "2005-043D",
    "EPOCH": "2025-05-24T14:57:33.143328",
    "MEAN_MOTION": 14.63703849,
    "ECCENTRICITY": 0.0015601,
    "INCLINATION": 98.235,
    "RA_OF_ASC_NODE": 273.0152,
    "ARG_OF_PERICENTER": 56.8965,
    "MEAN_ANOMALY": 303.3732,
    "EPHEMERIS_TYPE": 0,
    "CLASSIFICATION_TYPE": "U",
    "NORAD_CAT_ID": 28893,
    "ELEMENT_SET_NO": 999,
    "REV_AT_EPOCH": 4367,
    "BSTAR": 7.4739e-05,
    "MEAN_MOTION_DOT": 3.41e-06,
    "MEAN_MOTION_DDOT": 0
  },
  {
    "OBJECT_NAME": "EROS B",
    "OBJECT_ID": "2006-014A",
    "EPOCH": "2025-05-24T19:11:48.051744",
    "MEAN_MOTION": 15.38453356,
    "ECCENTRICITY": 0.0006263,
    "INCLINATION": 97.3442,
    "RA_OF_ASC_NODE": 257.902,
    "ARG_OF_PERICENTER": 123.6087,
    "MEAN_ANOMALY": 236.5756,
    "EPHEMERIS_TYPE": 0,
    "CLASSIFICATION_TYPE": "U",
    "NORAD_CAT_ID": 29079,
    "ELEMENT_SET_NO": 999,
    "REV_AT_EPOCH": 5956,
    "BSTAR": 0.00077018,
    "MEAN_MOTION_DOT": 0.00029226,
    "MEAN_MOTION_DDOT": 0
  },
  {
    "OBJECT_NAME": "RESURS-DK 1",
    "OBJECT_ID": "2006-021A",
    "EPOCH": "2025-05-24T13:53:15.365184",
    "MEAN_MOTION": 15.10885733,
    "ECCENTRICITY": 0.0006401,
    "INCLINATION": 69.9338,
    "RA_OF_ASC_NODE": 263.6821,
    "ARG_OF_PERICENTER": 227.3561,
    "MEAN_ANOMALY": 132.7065,
    "EPHEMERIS_TYPE": 0,
    "CLASSIFICATION_TYPE": "U",
    "NORAD_CAT_ID": 29228,
    "ELEMENT_SET_NO": 999,
    "REV_AT_EPOCH": 4383,
    "BSTAR": 0.00012356,
    "MEAN_MOTION_DOT": 1.956e-05,
    "MEAN_MOTION_DDOT": 0
  }
]